SL-3 R/B                
1 13154U 82039B   25304.27743818  .00003525  00000+0  21769-3 0  9992
2 13154  81.1839   4.9099 0032804  29.7987 330.5097 15.09186782362113
SL-3 R/B                
1 13403U 82079B   25304.24540748  .00007099  00000+0  29889-3 0  9998
2 13403  81.1490 345.7323 0024719 241.7426 118.1312 15.22937495357988
SL-14 R/B               
1 13553U 82092B   25304.28373237  .00000860  00000+0  94209-4 0  9998
2 13553  82.5662 262.4161 0020891  15.2405 101.1660 14.86479598309702
SL-3 R/B                
1 13819U 83010B   25304.09229164  .00018334  00000+0  42731-3 0  9999
2 13819  81.1044 160.6141 0018158 134.8117 225.4605 15.41946517337942
SL-3 R/B                
1 14208U 83075B   25304.23360778  .00014653  00000+0  43166-3 0  9999
2 14208  97.6107 299.3301 0022532 337.3435  22.6811 15.34895304310271
COSMOS 1536             
1 14699U 84013A   25304.27376098  .00010867  00000+0  47648-3 0  9994
2 14699  82.5465 236.2488 0016256  24.8153 335.3862 15.21737608252927
SL-14 R/B               
1 14820U 84027B   25304.26379189  .00000627  00000+0  69079-4 0  9994
2 14820  82.5444   6.3866 0019082  45.8187 314.4594 14.85809833228412
SL-8 R/B                
1 15483U 85006B   25304.03752775  .00000372  00000+0  13214-3 0  9995
2 15483  74.0431 139.6979 0017496  86.4256  28.7477 14.37682613135391
SL-12 R/B(2)            
1 15772U 85042D   25304.32870720  .00000080  00000+0  57298-4 0  9996
2 15772  71.1098   1.0195 0036644 323.9406 109.8617 14.21931907 96000
SL-14 R/B               
1 15945U 85069B   25304.01832421  .00000654  00000+0  71539-4 0  9990
2 15945  82.5254 146.8676 0017331 261.5737  98.3515 14.86250475153570
SL-16 R/B               
1 16182U 85097B   25303.72264760  .00000186  00000+0  11741-3 0  9995
2 16182  71.0041  54.1629 0005178  95.9163  54.3559 14.16575988 68823
SL-14 R/B               
1 16496U 86006B   25304.29591034  .00000817  00000+0  84719-4 0  9991
2 16496  82.5300  21.4804 0076350 342.7300  17.1319 14.86584966129983
