CCSDS_OMM_VERS = 2.0
CREATION_DATE  = 
ORIGINATOR     = 

OBJECT_NAME    = SL-3 R/B
OBJECT_ID      = 1982-039B
CENTER_NAME    = EARTH
REF_FRAME      = TEME
TIME_SYSTEM    = UTC
MEAN_ELEMENT_THEORY = SGP/SGP4

EPOCH          = 2025-10-31T06:39:30.658752
MEAN_MOTION    = 15.09186782
ECCENTRICITY   = .00328043
INCLINATION    = 81.1839
RA_OF_ASC_NODE = 4.9099
ARG_OF_PERICENTER = 29.7987
MEAN_ANOMALY   = 330.5097

EPHEMERIS_TYPE = 0
CLASSIFICATION_TYPE = U
NORAD_CAT_ID   = 13154
ELEMENT_SET_NO = 999
REV_AT_EPOCH   = 36211
BSTAR          = .21768841E-3
MEAN_MOTION_DOT = .3525E-4
MEAN_MOTION_DDOT = 0

CCSDS_OMM_VERS = 2.0
CREATION_DATE  = 
ORIGINATOR     = 

OBJECT_NAME    = SL-3 R/B
OBJECT_ID      = 1982-079B
CENTER_NAME    = EARTH
REF_FRAME      = TEME
TIME_SYSTEM    = UTC
MEAN_ELEMENT_THEORY = SGP/SGP4

EPOCH          = 2025-10-31T05:53:23.206272
MEAN_MOTION    = 15.22937495
ECCENTRICITY   = .00247198
INCLINATION    = 81.1490
RA_OF_ASC_NODE = 345.7323
ARG_OF_PERICENTER = 241.7426
MEAN_ANOMALY   = 118.1312

EPHEMERIS_TYPE = 0
CLASSIFICATION_TYPE = U
NORAD_CAT_ID   = 13403
ELEMENT_SET_NO = 999
REV_AT_EPOCH   = 35798
BSTAR          = .29889394E-3
MEAN_MOTION_DOT = .7099E-4
MEAN_MOTION_DDOT = 0

CCSDS_OMM_VERS = 2.0
CREATION_DATE  = 
ORIGINATOR     = 

OBJECT_NAME    = SL-14 R/B
OBJECT_ID      = 1982-092B
CENTER_NAME    = EARTH
REF_FRAME      = TEME
TIME_SYSTEM    = UTC
MEAN_ELEMENT_THEORY = SGP/SGP4

EPOCH          = 2025-10-31T06:48:34.476768
MEAN_MOTION    = 14.86479598
ECCENTRICITY   = .00208917
INCLINATION    = 82.5662
RA_OF_ASC_NODE = 262.4161
ARG_OF_PERICENTER = 15.2405
MEAN_ANOMALY   = 101.1660

EPHEMERIS_TYPE = 0
CLASSIFICATION_TYPE = U
NORAD_CAT_ID   = 13553
ELEMENT_SET_NO = 999
REV_AT_EPOCH   = 30970
BSTAR          = .94208645E-4
MEAN_MOTION_DOT = .86E-5
MEAN_MOTION_DDOT = 0

CCSDS_OMM_VERS = 2.0
CREATION_DATE  = 
ORIGINATOR     = 

OBJECT_NAME    = SL-3 R/B
OBJECT_ID      = 1983-010B
CENTER_NAME    = EARTH
REF_FRAME      = TEME
TIME_SYSTEM    = UTC
MEAN_ELEMENT_THEORY = SGP/SGP4

EPOCH          = 2025-10-31T02:12:53.997696
MEAN_MOTION    = 15.41946517
ECCENTRICITY   = .0018158
INCLINATION    = 81.1044
RA_OF_ASC_NODE = 160.6141
ARG_OF_PERICENTER = 134.8117
MEAN_ANOMALY   = 225.4605

EPHEMERIS_TYPE = 0
CLASSIFICATION_TYPE = U
NORAD_CAT_ID   = 13819
ELEMENT_SET_NO = 999
REV_AT_EPOCH   = 33794
BSTAR          = .42731474E-3
MEAN_MOTION_DOT = .18334E-3
MEAN_MOTION_DDOT = 0

CCSDS_OMM_VERS = 2.0
CREATION_DATE  = 
ORIGINATOR     = 

OBJECT_NAME    = SL-3 R/B
OBJECT_ID      = 1983-075B
CENTER_NAME    = EARTH
REF_FRAME      = TEME
TIME_SYSTEM    = UTC
MEAN_ELEMENT_THEORY = SGP/SGP4

EPOCH          = 2025-10-31T05:36:23.712192
MEAN_MOTION    = 15.34895304
ECCENTRICITY   = .00225325
INCLINATION    = 97.6107
RA_OF_ASC_NODE = 299.3301
ARG_OF_PERICENTER = 337.3435
MEAN_ANOMALY   = 22.6811

EPHEMERIS_TYPE = 0
CLASSIFICATION_TYPE = U
NORAD_CAT_ID   = 14208
ELEMENT_SET_NO = 999
REV_AT_EPOCH   = 31027
BSTAR          = .43165901E-3
MEAN_MOTION_DOT = .14653E-3
MEAN_MOTION_DDOT = 0

CCSDS_OMM_VERS = 2.0
CREATION_DATE  = 
ORIGINATOR     = 

OBJECT_NAME    = COSMOS 1536
OBJECT_ID      = 1984-013A
CENTER_NAME    = EARTH
REF_FRAME      = TEME
TIME_SYSTEM    = UTC
MEAN_ELEMENT_THEORY = SGP/SGP4

EPOCH          = 2025-10-31T06:34:12.948672
MEAN_MOTION    = 15.21737608
ECCENTRICITY   = .00162568
INCLINATION    = 82.5465
RA_OF_ASC_NODE = 236.2488
ARG_OF_PERICENTER = 24.8153
MEAN_ANOMALY   = 335.3862

EPHEMERIS_TYPE = 0
CLASSIFICATION_TYPE = U
NORAD_CAT_ID   = 14699
ELEMENT_SET_NO = 999
REV_AT_EPOCH   = 25292
BSTAR          = .47648134E-3
MEAN_MOTION_DOT = .10867E-3
MEAN_MOTION_DDOT = 0

CCSDS_OMM_VERS = 2.0
CREATION_DATE  = 
ORIGINATOR     = 

OBJECT_NAME    = SL-14 R/B
OBJECT_ID      = 1984-027B
CENTER_NAME    = EARTH
REF_FRAME      = TEME
TIME_SYSTEM    = UTC
MEAN_ELEMENT_THEORY = SGP/SGP4

EPOCH          = 2025-10-31T06:19:51.619296
MEAN_MOTION    = 14.85809833
ECCENTRICITY   = .00190822
INCLINATION    = 82.5444
RA_OF_ASC_NODE = 6.3866
ARG_OF_PERICENTER = 45.8187
MEAN_ANOMALY   = 314.4594

EPHEMERIS_TYPE = 0
CLASSIFICATION_TYPE = U
NORAD_CAT_ID   = 14820
ELEMENT_SET_NO = 999
REV_AT_EPOCH   = 22841
BSTAR          = .69079443E-4
MEAN_MOTION_DOT = .627E-5
MEAN_MOTION_DDOT = 0

CCSDS_OMM_VERS = 2.0
CREATION_DATE  = 
ORIGINATOR     = 

OBJECT_NAME    = SL-8 R/B
OBJECT_ID      = 1985-006B
CENTER_NAME    = EARTH
REF_FRAME      = TEME
TIME_SYSTEM    = UTC
MEAN_ELEMENT_THEORY = SGP/SGP4

EPOCH          = 2025-10-31T00:54:02.397600
MEAN_MOTION    = 14.37682613
ECCENTRICITY   = .00174961
INCLINATION    = 74.0431
RA_OF_ASC_NODE = 139.6979
ARG_OF_PERICENTER = 86.4256
MEAN_ANOMALY   = 28.7477

EPHEMERIS_TYPE = 0
CLASSIFICATION_TYPE = U
NORAD_CAT_ID   = 15483
ELEMENT_SET_NO = 999
REV_AT_EPOCH   = 13539
BSTAR          = .13214181E-3
MEAN_MOTION_DOT = .372E-5
MEAN_MOTION_DDOT = 0

CCSDS_OMM_VERS = 2.0
CREATION_DATE  = 
ORIGINATOR     = 

OBJECT_NAME    = SL-12 R/B(2)
OBJECT_ID      = 1985-042D
CENTER_NAME    = EARTH
REF_FRAME      = TEME
TIME_SYSTEM    = UTC
MEAN_ELEMENT_THEORY = SGP/SGP4

EPOCH          = 2025-10-31T07:53:20.302080
MEAN_MOTION    = 14.21931907
ECCENTRICITY   = .00366441
INCLINATION    = 71.1098
RA_OF_ASC_NODE = 1.0195
ARG_OF_PERICENTER = 323.9406
MEAN_ANOMALY   = 109.8617

EPHEMERIS_TYPE = 0
CLASSIFICATION_TYPE = U
NORAD_CAT_ID   = 15772
ELEMENT_SET_NO = 999
REV_AT_EPOCH   = 9600
BSTAR          = .57297955E-4
MEAN_MOTION_DOT = .8E-6
MEAN_MOTION_DDOT = 0

CCSDS_OMM_VERS = 2.0
CREATION_DATE  = 
ORIGINATOR     = 

OBJECT_NAME    = SL-14 R/B
OBJECT_ID      = 1985-069B
CENTER_NAME    = EARTH
REF_FRAME      = TEME
TIME_SYSTEM    = UTC
MEAN_ELEMENT_THEORY = SGP/SGP4

EPOCH          = 2025-10-31T00:26:23.211744
MEAN_MOTION    = 14.86250475
ECCENTRICITY   = .00173318
INCLINATION    = 82.5254
RA_OF_ASC_NODE = 146.8676
ARG_OF_PERICENTER = 261.5737
MEAN_ANOMALY   = 98.3515

EPHEMERIS_TYPE = 0
CLASSIFICATION_TYPE = U
NORAD_CAT_ID   = 15945
ELEMENT_SET_NO = 999
REV_AT_EPOCH   = 15357
BSTAR          = .7153946E-4
MEAN_MOTION_DOT = .654E-5
MEAN_MOTION_DDOT = 0

CCSDS_OMM_VERS = 2.0
CREATION_DATE  = 
ORIGINATOR     = 

OBJECT_NAME    = SL-16 R/B
OBJECT_ID      = 1985-097B
CENTER_NAME    = EARTH
REF_FRAME      = TEME
TIME_SYSTEM    = UTC
MEAN_ELEMENT_THEORY = SGP/SGP4

EPOCH          = 2025-10-30T17:20:36.752640
MEAN_MOTION    = 14.16575988
ECCENTRICITY   = .00051786
INCLINATION    = 71.0041
RA_OF_ASC_NODE = 54.1629
ARG_OF_PERICENTER = 95.9163
MEAN_ANOMALY   = 54.3559

EPHEMERIS_TYPE = 0
CLASSIFICATION_TYPE = U
NORAD_CAT_ID   = 16182
ELEMENT_SET_NO = 999
REV_AT_EPOCH   = 6882
BSTAR          = .11741141E-3
MEAN_MOTION_DOT = .186E-5
MEAN_MOTION_DDOT = 0

CCSDS_OMM_VERS = 2.0
CREATION_DATE  = 
ORIGINATOR     = 

OBJECT_NAME    = SL-14 R/B
OBJECT_ID      = 1986-006B
CENTER_NAME    = EARTH
REF_FRAME      = TEME
TIME_SYSTEM    = UTC
MEAN_ELEMENT_THEORY = SGP/SGP4

EPOCH          = 2025-10-31T07:06:06.653376
MEAN_MOTION    = 14.86584966
ECCENTRICITY   = .00763508
INCLINATION    = 82.5300
RA_OF_ASC_NODE = 21.4804
ARG_OF_PERICENTER = 342.7300
MEAN_ANOMALY   = 17.1319

EPHEMERIS_TYPE = 0
CLASSIFICATION_TYPE = U
NORAD_CAT_ID   = 16496
ELEMENT_SET_NO = 999
REV_AT_EPOCH   = 12998
BSTAR          = .84719203E-4
MEAN_MOTION_DOT = .817E-5
MEAN_MOTION_DDOT = 0

